*******************************************************************************
JPL/HORIZONS               1702 Kalahari (A924 NC)         2023-Sep-04 11:13:40
Rec #:    1702 (+COV) Soln.date: 2023-Aug-22_09:10:32   # obs: 4397 (1948-2023)
 
IAU76/J2000 helio. ecliptic osc. elements (au, days, deg., period=Julian yrs):
 
  EPOCH=  2457580.5 ! 2016-Jul-11.00 (TDB)         Residual RMS= .23684
   EC= .1436489752024662   QR= 2.446395261891796   TP= 2457668.176983648
   OM= 103.8839964290342   W=  242.2847327337538   IN= 9.963805052155525
   A= 2.85676689938007     MA= 342.103114214321    ADIST= 3.267138536868345
   PER= 4.82859            N= .204122964           ANGMOM= .028773396
   DAN= 2.99812            DDN= 2.62261            L= 345.8086792
   B= -8.81095             MOID= 1.45699           TP= 2016-Oct-06.6769836480
 
Asteroid physical parameters (km, seconds, rotational period in hours):
   GM= n.a.                RAD= 17.3225            ROTPER= 21.153
   H= 11.08                G= .150                 B-V= .735
                           ALBEDO= .065            STYP= L

ASTEROID comments: 
1: soln ref.= JPL#97, OCC=0
2: source=ORB
*******************************************************************************


*******************************************************************************
Ephemeris / API_USER Mon Sep  4 11:13:40 2023 Pasadena, USA      / Horizons
*******************************************************************************
Target body name: 1702 Kalahari (A924 NC)         {source: JPL#97}
Center body name: Solar System Barycenter (0)     {source: DE441}
Center-site name: BODY CENTER
*******************************************************************************
Start time      : A.D. 2023-Aug-12 00:00:00.0000 TDB
Stop  time      : A.D. 2023-Aug-13 00:00:00.0000 TDB
Step-size       : 2880 minutes
*******************************************************************************
Center geodetic : 0.0, 0.0, 0.0                   {E-lon(deg),Lat(deg),Alt(km)}
Center cylindric: 0.0, 0.0, 0.0                   {E-lon(deg),Dxy(km),Dz(km)}
Center radii    : (undefined)
Small perturbers: Yes                             {source: SB441-N16}
Output units    : KM-S
Calendar mode   : Mixed Julian/Gregorian
Output type     : GEOMETRIC cartesian states
Output format   : 2 (position and velocity)
Reference frame : Ecliptic of J2000.0
*******************************************************************************
Initial IAU76/J2000 heliocentric ecliptic osculating elements (au, days, deg.):
  EPOCH=  2457580.5 ! 2016-Jul-11.00 (TDB)         Residual RMS= .23684        
   EC= .1436489752024662   QR= 2.446395261891796   TP= 2457668.176983648       
   OM= 103.8839964290342   W=  242.2847327337538   IN= 9.963805052155525       
  Equivalent ICRF heliocentric cartesian coordinates (au, au/d):
   X= 1.931578723975908E+00  Y=-1.290544285283112E+00  Z=-8.486518975282991E-01
  VX= 6.529212048392888E-03 VY= 9.344618483299271E-03 VZ= 2.399946672639561E-03
Asteroid physical parameters (km, seconds, rotational period in hours):        
   GM= n.a.                RAD= 17.3225            ROTPER= 21.153              
   H= 11.08                G= .150                 B-V= .735                   
                           ALBEDO= .065            STYP= L                     
*******************************************************************************
JDTDB
   X     Y     Z
   VX    VY    VZ
*******************************************************************************
$$SOE
2460168.500000000 = A.D. 2023-Aug-12 00:00:00.0000 TDB 
 X =-3.840822336403267E+08 Y = 2.888541750722268E+08 Z = 5.314601252885994E+07
 VX=-9.787117550590521E+00 VY=-1.179531957226184E+01 VZ= 2.164349307444244E+00
$$EOE
*******************************************************************************
 
TIME

  Barycentric Dynamical Time ("TDB" or T_eph) output was requested. This
continuous coordinate time is equivalent to the relativistic proper time
of a clock at rest in a reference frame co-moving with the solar system
barycenter but outside the system's gravity well. It is the independent
variable in the solar system relativistic equations of motion.

  TDB runs at a uniform rate of one SI second per second and is independent
of irregularities in Earth's rotation.
 
CALENDAR SYSTEM

  Mixed calendar mode was active such that calendar dates after AD 1582-Oct-15
(if any) are in the modern Gregorian system. Dates prior to 1582-Oct-5 (if any)
are in the Julian calendar system, which is automatically extended for dates
prior to its adoption on 45-Jan-1 BC.  The Julian calendar is useful for
matching historical dates. The Gregorian calendar more accurately corresponds
to the Earth's orbital motion and seasons. A "Gregorian-only" calendar mode is
available if such physical events are the primary interest.

REFERENCE FRAME AND COORDINATES

  Ecliptic at the standard reference epoch

    Reference epoch: J2000.0
    X-Y plane: adopted Earth orbital plane at the reference epoch
               Note: IAU76 obliquity of 84381.448 arcseconds wrt ICRF X-Y plane
    X-axis   : ICRF
    Z-axis   : perpendicular to the X-Y plane in the directional (+ or -) sense
               of Earth's north pole at the reference epoch.

  Symbol meaning:

    JDTDB    Julian Day Number, Barycentric Dynamical Time
      X      X-component of position vector (km)
      Y      Y-component of position vector (km)
      Z      Z-component of position vector (km)
      VX     X-component of velocity vector (km/sec)                           
      VY     Y-component of velocity vector (km/sec)                           
      VZ     Z-component of velocity vector (km/sec)                           

ABERRATIONS AND CORRECTIONS

 Geometric state vectors have NO corrections or aberrations applied.

Computations by ...

    Solar System Dynamics Group, Horizons On-Line Ephemeris System
    4800 Oak Grove Drive, Jet Propulsion Laboratory
    Pasadena, CA  91109   USA

    General site: https://ssd.jpl.nasa.gov/
    Mailing list: https://ssd.jpl.nasa.gov/email_list.html
    System news : https://ssd.jpl.nasa.gov/horizons/news.html
    User Guide  : https://ssd.jpl.nasa.gov/horizons/manual.html
    Connect     : browser        https://ssd.jpl.nasa.gov/horizons/app.html#/x
                  API            https://ssd-api.jpl.nasa.gov/doc/horizons.html
                  command-line   telnet ssd.jpl.nasa.gov 6775
                  e-mail/batch   https://ssd.jpl.nasa.gov/ftp/ssd/hrzn_batch.txt
                  scripts        https://ssd.jpl.nasa.gov/ftp/ssd/SCRIPTS
    Author      : Jon.D.Giorgini@jpl.nasa.gov
*******************************************************************************
